{
    "week": 293,
    "satellites": [
        {
            "Name": "BEIDOU-3 M28 (C50)",
            "Line1": "1 58654U 23207A   24321.53562337 -.00000035  00000+0  00000+0 0  9995",
            "Line2": "2 58654  55.2402  81.8767 0001597 232.9654 126.9887  1.86231939  6085",
            "SatelliteNumber": "58654",
            "Classification": "U",
            "LaunchYear": "23",
            "LaunchNumber": "207",
            "PieceOfLaunch": "A",
            "EpochYear": "24",
            "EpochDay": 321.53562337,
            "FirstDerivativeMeanMotion": -3.5e-07,
            "SecondDerivativeMeanMotion": "00000+0",
            "BSTAR": "00000+0",
            "SetNumber": "999",
            "Inclination": 55.2402,
            "RAAN": 81.8767,
            "Eccentricity": 0.0001597,
            "ArgumentOfPerigee": 232.9654,
            "MeanAnomaly": 126.9887,
            "MeanMotion": 1.86231939,
            "RevolutionNumber": "608"
        },
        {
            "Name": "BEIDOU-3 M26 (C48)",
            "Line1": "1 58655U 23207B   24320.79797044 -.00000034  00000+0  00000+0 0  9997",
            "Line2": "2 58655  55.2414  81.8874 0003062 227.5655 132.3771  1.86231420  6053",
            "SatelliteNumber": "58655",
            "Classification": "U",
            "LaunchYear": "23",
            "LaunchNumber": "207",
            "PieceOfLaunch": "B",
            "EpochYear": "24",
            "EpochDay": 320.79797044,
            "FirstDerivativeMeanMotion": -3.4e-07,
            "SecondDerivativeMeanMotion": "00000+0",
            "BSTAR": "00000+0",
            "SetNumber": "999",
            "Inclination": 55.2414,
            "RAAN": 81.8874,
            "Eccentricity": 0.0003062,
            "ArgumentOfPerigee": 227.5655,
            "MeanAnomaly": 132.3771,
            "MeanMotion": 1.8623142,
            "RevolutionNumber": "605"
        }
    ]
}